[{"OBJECT_NAME":"STARLINK-35664","OBJECT_ID":"2025-244T","EPOCH":"2026-03-09T22:00:01.999584","MEAN_MOTION":15.3016734,"ECCENTRICITY":0.00011347,"INCLINATION":53.1568,"RA_OF_ASC_NODE":229.0255,"ARG_OF_PERICENTER":68.1486,"MEAN_ANOMALY":228.3863,"EPHEMERIS_TYPE":0,"CLASSIFICATION_TYPE":"U","NORAD_CAT_ID":66223,"ELEMENT_SET_NO":999,"REV_AT_EPOCH":581,"BSTAR":0.0026446014,"MEAN_MOTION_DOT":0.0007872,"MEAN_MOTION_DDOT":0},{"OBJECT_NAME":"KUIPER-00222","OBJECT_ID":"2026-030U","EPOCH":"2026-03-09T16:13:57.726048","MEAN_MOTION":15.32445377,"ECCENTRICITY":0.00128002,"INCLINATION":51.8817,"RA_OF_ASC_NODE":219.7147,"ARG_OF_PERICENTER":40.1845,"MEAN_ANOMALY":320.0084,"EPHEMERIS_TYPE":0,"CLASSIFICATION_TYPE":"U","NORAD_CAT_ID":67782,"ELEMENT_SET_NO":999,"REV_AT_EPOCH":508,"BSTAR":0.0017317201,"MEAN_MOTION_DOT":0.00055223,"MEAN_MOTION_DDOT":0}]
